[C_Greatcomet(1881)]
name=C/Great comet (1881)
type=comet
orbit_Epoch=2408240.500000
orbit_good=1000
orbit_PericenterDistance=0.73455800
orbit_Eccentricity=0.99594600
orbit_Inclination= 63.42440
orbit_ArgOfPericenter=354.24220
orbit_AscendingNode=271.92900
orbit_TimeAtPericenter= 2408248.44070
ref=CometMagneticCat (See6ComCatp56ff)
discovery_code=1881b
perihelion_code=1881 III
absolute_magnitude=5.6
slope_parameter=2.6

[C_Schaeberle(1881)]
name=C/Schaeberle (1881)
type=comet
orbit_Epoch=2408316.500000
orbit_good=1000
orbit_PericenterDistance=0.63354200
orbit_Eccentricity=1.00000000
orbit_Inclination=140.22960
orbit_ArgOfPericenter=122.13560
orbit_AscendingNode= 98.01750
orbit_TimeAtPericenter= 2408315.30600
ref=CometMagneticCat (See6ComCatp56ff)
discovery_code=1881c
perihelion_code=1881 IV
absolute_magnitude=6.3
slope_parameter=4.0

[P_Denning-Fujikawa(1881)]
name=P/Denning-Fujikawa (1881)
type=comet
orbit_Epoch=2408320.500000
orbit_good=1000
orbit_PericenterDistance=0.72507000
orbit_Eccentricity=0.82870000
orbit_Inclination=  6.87000
orbit_ArgOfPericenter=312.47600
orbit_AscendingNode= 66.93500
orbit_TimeAtPericenter= 2408337.24900
ref=CometMagneticCat (See6ComCatp56ff)
discovery_code=1881f
perihelion_code=1881 V
absolute_magnitude=9.0
slope_parameter=4.0

[C_Barnard(1881)]
name=C/Barnard (1881)
type=comet
orbit_Epoch=2408338.365300
orbit_good=1000
orbit_PericenterDistance=0.44920000
orbit_Eccentricity=1.00000000
orbit_Inclination=112.81480
orbit_ArgOfPericenter=  6.29300
orbit_AscendingNode=275.12370
orbit_TimeAtPericenter= 2408338.36530
ref=CometMagneticCat (See6ComCatp56ff)
discovery_code=1881e
perihelion_code=1881 VI
absolute_magnitude=8.3
slope_parameter=4.0

[P_Encke(1881)]
name=P/Encke (1881)
type=comet
orbit_Epoch=2408400.500000
orbit_good=1000
orbit_PericenterDistance=0.34343400
orbit_Eccentricity=0.84534700
orbit_Inclination= 12.89110
orbit_ArgOfPericenter=183.91110
orbit_AscendingNode=335.53910
orbit_TimeAtPericenter= 2408400.30340
ref=CometMagneticCat (See6ComCatp56ff)
discovery_code=1881d
perihelion_code=1881 VII
absolute_magnitude=9.8
slope_parameter=4.0

[C_Swift(1881)]
name=C/Swift (1881)
type=comet
orbit_Epoch=2408404.741800
orbit_good=1000
orbit_PericenterDistance=1.92497300
orbit_Eccentricity=0.99016900
orbit_Inclination=144.80800
orbit_ArgOfPericenter=117.95030
orbit_AscendingNode=182.34210
orbit_TimeAtPericenter= 2408404.74180
ref=CometMagneticCat (See6ComCatp56ff)
discovery_code=1881g
perihelion_code=1881 VIII
absolute_magnitude=4.3
slope_parameter=4.0

[C_Wells(1882)]
name=C/Wells (1882)
type=comet
orbit_Epoch=2408600.500000
orbit_good=1000
orbit_PericenterDistance=0.06076300
orbit_Eccentricity=0.99999400
orbit_Inclination= 73.80330
orbit_ArgOfPericenter=208.98890
orbit_AscendingNode=205.89160
orbit_TimeAtPericenter= 2408607.52960
ref=CometMagneticCat (See6ComCatp56ff)
discovery_code=1882a
perihelion_code=1882 I
absolute_magnitude=4.1
slope_parameter=4.0

[C_GreatSeptembercomet(1882)]
name=C/Great September comet (1882)
type=comet
orbit_Epoch=2408720.500000
orbit_good=1000
orbit_PericenterDistance=0.00775100
orbit_Eccentricity=0.99990700
orbit_Inclination=142.00460
orbit_ArgOfPericenter= 69.58670
orbit_AscendingNode=346.95920
orbit_TimeAtPericenter= 2408706.22410
ref=CometMagneticCat (See6ComCatp56ff)
discovery_code=1882b
perihelion_code=1882 II
absolute_magnitude=0.5
slope_parameter=3.2

[C_Barnard(1882)]
name=C/Barnard (1882)
type=comet
orbit_Epoch=2408748.500000
orbit_good=1000
orbit_PericenterDistance=0.95556700
orbit_Eccentricity=1.00000000
orbit_Inclination= 96.14820
orbit_ArgOfPericenter=254.29470
orbit_AscendingNode=250.07240
orbit_TimeAtPericenter= 2408762.97540
ref=CometMagneticCat (See6ComCatp56ff)
discovery_code=1882c
perihelion_code=1882 III
absolute_magnitude=7.4
slope_parameter=4.0

[C_Brooks-Swift(1883)]
name=C/Brooks-Swift (1883)
type=comet
orbit_Epoch=2408860.953300
orbit_good=1000
orbit_PericenterDistance=0.76006200
orbit_Eccentricity=1.00000000
orbit_Inclination= 78.06320
orbit_ArgOfPericenter=110.90110
orbit_AscendingNode=279.07360
orbit_TimeAtPericenter= 2408860.95330
ref=CometMagneticCat (See6ComCatp56ff)
discovery_code=1883a
perihelion_code=1883 I
absolute_magnitude=7.0
slope_parameter=4.0

[C_Ross(1883)]
name=C/Ross (1883)
type=comet
orbit_Epoch=2409170.292600
orbit_good=1000
orbit_PericenterDistance=0.30960700
orbit_Eccentricity=1.00000000
orbit_Inclination=114.97690
orbit_ArgOfPericenter=138.60400
orbit_AscendingNode=265.29700
orbit_TimeAtPericenter= 2409170.29260
ref=CometMagneticCat (See6ComCatp56ff)
discovery_code=1884a
perihelion_code=1883 II
absolute_magnitude=7.0
slope_parameter=4.0

[P_Pons-Brooks(1884)]
name=P/Pons-Brooks (1884)
type=comet
orbit_Epoch=2409200.500000
orbit_good=1000
orbit_PericenterDistance=0.77572900
orbit_Eccentricity=0.95505200
orbit_Inclination= 74.04180
orbit_ArgOfPericenter=199.18240
orbit_AscendingNode=255.07450
orbit_TimeAtPericenter= 2409201.71610
ref=CometMagneticCat (See6ComCatp56ff)
discovery_code=1883b
perihelion_code=1884 I
absolute_magnitude=4.9
slope_parameter=4.0

[P_Barnard1(1884)]
name=P/Barnard 1 (1884)
type=comet
orbit_Epoch=2409320.500000
orbit_good=1000
orbit_PericenterDistance=1.27948200
orbit_Eccentricity=0.58325200
orbit_Inclination=  5.46370
orbit_ArgOfPericenter=301.03740
orbit_AscendingNode=  6.07500
orbit_TimeAtPericenter= 2409405.46800
ref=CometMagneticCat (See6ComCatp56ff)
discovery_code=1884b
perihelion_code=1884 II
absolute_magnitude=8.9
slope_parameter=4.0

[P_Wolf(1884)]
name=P/Wolf (1884)
type=comet
orbit_Epoch=2409480.500000
orbit_good=1000
orbit_PericenterDistance=1.57196700
orbit_Eccentricity=0.56090600
orbit_Inclination= 25.25370
orbit_ArgOfPericenter=172.69870
orbit_AscendingNode=207.29640
orbit_TimeAtPericenter= 2409498.78940
ref=CometMagneticCat (See6ComCatp56ff)
discovery_code=1884c
perihelion_code=1884 III
absolute_magnitude=6.2
slope_parameter=4.0

[P_Encke(1885)]
name=P/Encke (1885)
type=comet
orbit_Epoch=2409600.500000
orbit_good=1000
orbit_PericenterDistance=0.34237200
orbit_Eccentricity=0.84575600
orbit_Inclination= 12.90860
orbit_ArgOfPericenter=183.91430
orbit_AscendingNode=335.53180
orbit_TimeAtPericenter= 2409608.63710
ref=CometMagneticCat (See6ComCatp56ff)
discovery_code=1884d
perihelion_code=1885 I
absolute_magnitude=9.7
slope_parameter=4.0

[C_Barnard(1885)]
name=C/Barnard (1885)
type=comet
orbit_Epoch=2409759.681800
orbit_good=1000
orbit_PericenterDistance=2.50673200
orbit_Eccentricity=1.00000000
orbit_Inclination= 80.62490
orbit_ArgOfPericenter=178.50980
orbit_AscendingNode= 93.20210
orbit_TimeAtPericenter= 2409759.68180
ref=CometMagneticCat (See6ComCatp56ff)
discovery_code=1885a
perihelion_code=1885 II
absolute_magnitude=5.8
slope_parameter=4.0

[C_Brooks(1885)]
name=C/Brooks (1885)
type=comet
orbit_Epoch=2409760.500000
orbit_good=1000
orbit_PericenterDistance=0.74914900
orbit_Eccentricity=0.98226400
orbit_Inclination= 59.10260
orbit_ArgOfPericenter= 42.85400
orbit_AscendingNode=205.66690
orbit_TimeAtPericenter= 2409764.15730
ref=CometMagneticCat (See6ComCatp56ff)
discovery_code=1885c
perihelion_code=1885 III
absolute_magnitude=9.5
slope_parameter=4.0

[P_Tuttle(1885)]
name=P/Tuttle (1885)
type=comet
orbit_Epoch=2409800.500000
orbit_good=1000
orbit_PericenterDistance=1.02471300
orbit_Eccentricity=0.82154200
orbit_Inclination= 54.32970
orbit_ArgOfPericenter=206.77410
orbit_AscendingNode=270.54390
orbit_TimeAtPericenter= 2409796.29880
ref=CometMagneticCat (See6ComCatp56ff)
discovery_code=1885b
perihelion_code=1885 IV
absolute_magnitude=8.5
slope_parameter=4.0

[C_Brooks(1885)]
name=C/Brooks (1885)
type=comet
orbit_Epoch=2409871.505000
orbit_good=1000
orbit_PericenterDistance=1.07954500
orbit_Eccentricity=1.00000000
orbit_Inclination= 42.44240
orbit_ArgOfPericenter= 35.60010
orbit_AscendingNode=263.10570
orbit_TimeAtPericenter= 2409871.50500
ref=CometMagneticCat (See6ComCatp56ff)
discovery_code=1885f
perihelion_code=1885 V
absolute_magnitude=6.3
slope_parameter=4.0

[C_Fabry(1886)]
name=C/Fabry (1886)
type=comet
orbit_Epoch=2410000.500000
orbit_good=1000
orbit_PericenterDistance=0.64236300
orbit_Eccentricity=1.00027200
orbit_Inclination= 82.62380
orbit_ArgOfPericenter=126.58330
orbit_AscendingNode= 37.26520
orbit_TimeAtPericenter= 2410002.95420
ref=5thCometCatalog (Marsden)
discovery_code=1885d
perihelion_code=1886 I
absolute_magnitude=6.7
slope_parameter=2.7

